<!DOCTYPE html PUBLIC "-//W3C//DTD XHTML 1.0 Strict//EN" "http://www.w3.org/TR/xhtml1/DTD/xhtml1-strict.dtd">
<html xmlns="http://www.w3.org/1999/xhtml">
<head>
<meta http-equiv="Content-Type" content="text/html; charset=iso-8859-1"/>
<title>404 - File Not Found.</title>
<style type="text/css">
<!--
body{margin:0;font-size:.7em;font-family:Verdana, Arial, Helvetica, sans-serif;background:#EEEEEE;}
fieldset{padding:0 15px 10px 15px;}
h1{font-size:2.4em;margin:0;color:#FFF;}
h2{font-size:1.7em;margin:0;color:#CC0000;}
h3{font-size:1.2em;margin:10px 0 0 0;color:#000000;}
#header{width:96%;margin:0 0 0 0;padding:6px 2% 6px 2%;font-family:"trebuchet MS", Verdana, sans-serif;color:#FFF;
background-color:#555555;}
#content{margin:0 0 0 2%;position:relative;}
.content-container{background:#FFF;width:96%;margin-top:8px;padding:10px;position:relative;}
-->
</style>
</head>
<body>
<div id="header"><h1>Server Error</h1></div>
<div id="content">
 <div class="content-container"><fieldset>
  <h2>404 - File Not Found.</h2>
  <h3>File not found for celestrak.org/NORAD/elements/active.txt.</h3>
  <h3>Please contact <a href="mailto:ts.kelso@celestrak.org">ts.kelso@celestrak.org</a> if you have other questions.</h3>
 </fieldset></div>
</div>
</body>
</html>
ENVISAT                 
1 27386U 02009A   24047.92041031  .00000322  00000+0  11914-3 0  9999
2 27386  98.2668  13.3335 0001264  91.1106 286.1978 14.38503146151076
IDEFIX & ARIANE 42P R/B 
1 27422U 02021B   24047.82667349  .00000649  00000+0  26819-3 0  9991
2 27422  98.5169 348.0261 0010993 239.4268 120.5831 14.29967103136526
AQUA                    
1 27424U 02022A   24048.13221159  .00001970  00000+0  43068-3 0  9997
2 27424  98.3167 357.1895 0001925  98.1558 317.8124 14.58879923159069
CZ-4B R/B               
1 27432U 02024C   24047.77364144  .00000099  00000+0  74626-4 0  9995
2 27432  98.9936  89.4103 0050193 355.8695 124.1585 14.14283043122942
MIDORI II (ADEOS-II)    
1 27597U 02056A   24047.84467086  .00000706  00000+0  30107-3 0  9999
2 27597  98.6785 355.1319 0001868  61.0791 299.0577 14.28202731102933
H-2A R/B                
1 27601U 02056E   24047.91785495  .00000620  00000+0  23686-3 0  9999
2 27601  98.2179  31.0951 0070280 242.7973 170.8020 14.32656177106427
CZ-4B R/B               
1 28059U 03049C   24047.90553659  .00001098  00000+0  27068-3 0  9992
2 28059  98.5950   6.9864 0049517   7.7113 352.4833 14.53561672 77327
CZ-2C R/B               
1 28222U 04012C   24047.91841930  .00013175  00000+0  55742-3 0  9997
2 28222  97.8099  55.8444 0038454 111.6187 248.9152 15.22648872 88629
SL-16 R/B               
1 28353U 04021B   24048.15789035  .00000054  00000+0  52964-4 0  9992
2 28353  71.0018   9.3889 0002896 111.9728 248.1702 14.14380816 16569
CZ-4B R/B               
1 28415U 04035C   24047.65244191  .00008340  00000+0  45325-3 0  9997
2 28415  97.4410  84.0791 0045933  84.8847 275.7625 15.13823418 65561
CZ-2C R/B               
1 28480U 04046B   24047.86748871  .00000373  00000+0  15572-3 0  9997
2 28480  98.1479   0.3263 0140065 217.7735 141.3552 14.26249729  1305
ARIANE 5 R/B            
1 28499U 04049H   24047.89447702  .00001994  00000+0  24217-3 0  9998
2 28499  98.1625 183.2375 0087687 265.2051  93.9144 14.82070760 34306
CZ-2D R/B               
1 28738U 05024B   24047.96495963  .00012247  00000+0  52498-3 0  9993
2 28738  97.3633  48.5919 0008470 198.8134 161.2791 15.22864537 24196
SUZAKU (ASTRO-EII)      
1 28773U 05025A   24047.88491427  .00024815  00000+0  63631-3 0  9990
2 28773  31.3877 237.9047 0002614  84.2627 275.8324 15.38152003 28270
ALOS (DAICHI)           
1 28931U 06002A   24047.89366918  .00002589  00000+0  49028-3 0  9997
2 28931  98.0220   3.7133 0001765 117.1317 243.0067 14.65140910963587
H-2A R/B                
1 28932U 06002B   24048.18724138  .00008934  00000+0  69525-3 0  9997
2 28932  98.2186 133.2167 0075182 241.9691 117.3912 14.99268148981293
RESURS-DK 1             
1 29228U 06021A   24047.93829291  .00004376  00000+0  30304-3 0  9994
2 29228  69.9369  12.5079 0006380 232.2707 127.7878 15.06396340974053
GENESIS 1               
1 29252U 06029A   24047.88171231  .00018911  00000+0  58441-3 0  9999
2 29252  64.5169 213.9637 0009071 331.7821  28.2817 15.33570922971952
CZ-4B R/B               
1 29507U 06046C   24047.83890881  .00005810  00000+0  39292-3 0  9992
2 29507  97.6615  84.6284 0040750 332.4327  27.4738 15.06250113946443
CZ-2C R/B               
1 31114U 07010B   24047.89808855  .00000249  00000+0  13447-3 0  9992
2 31114  98.3099 191.1892 0058737 322.4503  37.2579 14.19708112873027
COSMO-SKYMED 1          
1 31598U 07023A   24048.08960817  .00000238  00000+0  36469-4 0  9999
2 31598  97.8829 233.0129 0001397  85.0098 275.1275 14.82146679903257
GENESIS 2               
1 31789U 07028A   24047.93049336  .00016525  00000+0  52499-3 0  9999
2 31789  64.4910 258.8731 0036548 229.5110 130.2833 15.32144278918874
COSMOS 2428             
1 31792U 07029A   24048.11957273  .00000289  00000+0  18153-3 0  9992
2 31792  70.9492 340.7601 0012307 226.5106 133.4993 14.12695058858027
SL-16 R/B               
1 31793U 07029B   24047.96404951 -.00000173  00000+0 -65255-4 0  9995
2 31793  70.9775 312.3010 0002329 277.4702 160.3945 14.14596115859057
KORONAS-FOTON           
1 33504U 09003A   24048.14636313  .00007636  00000+0  31246-3 0  9992
2 33504  82.4404 325.0725 0014794 313.3490  46.6513 15.24066564830703
CZ-2C R/B               
1 37731U 11030B   24047.88309373  .00002676  00000+0  37680-3 0  9991
2 37731  97.7485  16.3462 0055204 273.9080 139.2448 14.77076763678943
H-2A R/B                
1 38341U 12025E   24048.17667237  .00003283  00000+0  35979-3 0  9997
2 38341  98.4316 312.1605 0050403 239.5996 120.0231 14.87624705636272
CUSAT 2 & FALCON 9 R/B  
1 39271U 13055G   24048.17955876  .00045024 -27797-6  63292-3 0  9991
2 39271  80.9416 223.8564 0358828 348.2620  11.0388 15.06870322547068
SHIJIAN-16 (SJ-16)      
1 39358U 13057A   24048.13085366  .00003840  00000+0  41822-3 0  9998
2 39358  74.9744 163.7419 0017199 131.2730 228.9941 14.88178630559606
CZ-2C R/B               
1 39364U 13059B   24048.10749735  .00071501  00000+0  78125-3 0  9996
2 39364  97.0652  96.4418 0019731 270.6272  89.2727 15.62864970574194
SL-4 R/B                
1 39679U 14021B   24047.53833548  .00011830  00000+0  46525-3 0  9995
2 39679  51.6124 343.9578 0141657 288.1518  70.4076 15.17260331541284
ALOS-2                  
1 39766U 14029A   24048.18266957  .00002315  00000+0  31668-3 0  9996
2 39766  97.9208 146.5694 0001496 103.3920 256.7459 14.79475297525781
SL-27 R/B               
1 40354U 14084B   24048.16445659  .00033481  00000+0  34295-3 0  9995
2 40354  74.7276 111.7250 0025025 337.5265  22.4861 15.64406978515557
YAOGAN-29               
1 41038U 15069A   24048.15641430  .00001008  00000+0  13545-3 0  9998
2 41038  98.0613  61.8380 0000557 282.1313  77.9837 14.81511634444544
ASTRO-H (HITOMI)        
1 41337U 16012A   24047.68640632  .00004638  00000+0  33205-3 0  9996
2 41337  31.0021 144.0892 0011163   7.8504 352.2305 15.02768632438725
HXMT (HUIYAN)           
1 42758U 17034A   24048.17525533  .00007399  00000+0  39289-3 0  9991
2 42758  43.0136 224.9291 0001413 211.7355 148.3407 15.15719113368498
CZ-2C R/B               
1 43521U 18054D   24047.75129415  .00017641  00000+0  67015-3 0  9994
2 43521  35.1482 162.6629 0062545 113.8284 246.9005 15.24109669312309
SAOCOM 1A               
1 43641U 18076A   24048.09805241  .00001040  00000+0  13722-3 0  9999
2 43641  97.8874 236.0590 0001309  88.3917 271.7446 14.82159532290032
H-2A R/B                
1 43682U 18084L   24048.17187148  .00008945  00000+0  50826-3 0  9998
2 43682  98.8625 116.1565 0047818  53.5585 307.0035 15.12221510291197
SAOCOM 1B               
1 46265U 20059A   24048.12924171  .00000751  00000+0  10090-3 0  9999
2 46265  97.8879 235.1782 0001365  90.1076 270.0293 14.82142327187439
CSS (TIANHE)            
1 48274U 21035A   24048.18277098  .00041561  00000+0  42724-3 0  9994
2 48274  41.4684 102.4556 0006600  34.3558 325.7708 15.64081760160150
COSMOS 2550             
1 48865U 21056A   24047.93487498  .00000838  00000+0  31295-4 0  9996
2 48865  67.1409 155.1549 0008417 269.6567  90.3623 15.33828765148184
2022-019U               
1 51842U 22019U   24048.16809748  .00063280  00000+0  99864-3 0  9992
2 51842  97.5129 147.5007 0036940 180.2596 179.8644 15.52514225110218
CZ-2C R/B               
1 52794U 22058K   24047.97396248  .00010334  00000+0  44466-3 0  9996
2 52794  50.1677 114.4311 0086771   1.1896 358.9251 15.19788507 94663
CZ-2C R/B               
1 53131U 22082D   24048.09871606  .00122967  00000+0  78924-3 0  9991
2 53131  97.3233  76.1098 0020141  54.1376 306.1756 15.75603240 89937
XRISM                   
1 57800U 23137A   24048.14924598  .00006501  00000+0  50864-3 0  9993
2 57800  31.0043  62.1119 0009804  91.6683 268.5075 14.99635058 24499
NOAA 15                 
1 25338U 98030A   24048.10595384  .00000311  00000+0  14693-3 0  9994
2 25338  98.5833  77.6875 0009597 323.1889  36.8632 14.26495351340176
DMSP 5D-3 F16 (USA 172) 
1 28054U 03048A   24048.15188900  .00000334  00000+0  20011-3 0  9990
2 28054  99.0221  53.4837 0007925  41.6893  36.8131 14.13951522 49174
NOAA 18                 
1 28654U 05018A   24048.13657158  .00000331  00000+0  20046-3 0  9994
2 28654  98.8845 126.0769 0014827  49.7221 310.5244 14.13125167966165
METEOSAT-9 (MSG-2)      
1 28912U 05049B   24047.68275427  .00000118  00000+0  00000+0 0  9996
2 28912   7.4075  61.8720 0000292  59.6705 316.0635  1.00272384 66515
EWS-G1 (GOES 13)        
1 29155U 06018A   24047.79454578 -.00000114  00000+0  00000+0 0  9998
2 29155   2.3085  86.7455 0088310 249.9711 105.5220  0.99157338 34827
